[{"OBJECT_NAME":"STARLINK-1667","OBJECT_ID":"2020-057AQ","EPOCH":"2024-10-27T13:11:03.713856","MEAN_MOTION":15.06381779,"ECCENTRICITY":0.0001781,"INCLINATION":53.055,"RA_OF_ASC_NODE":352.8522,"ARG_OF_PERICENTER":98.7917,"MEAN_ANOMALY":261.3274,"EPHEMERIS_TYPE":0,"CLASSIFICATION_TYPE":"U","NORAD_CAT_ID":46155,"ELEMENT_SET_NO":999,"REV_AT_EPOCH":23220,"BSTAR":-0.00018253,"MEAN_MOTION_DOT":-2.998e-5,"MEAN_MOTION_DDOT":0},{"OBJECT_NAME":"STARLINK-1545","OBJECT_ID":"2020-057AR","EPOCH":"2024-10-27T14:33:18.912096","MEAN_MOTION":15.06422591,"ECCENTRICITY":0.0001575,"INCLINATION":53.0554,"RA_OF_ASC_NODE":12.6003,"ARG_OF_PERICENTER":94.9176,"MEAN_ANOMALY":265.1993,"EPHEMERIS_TYPE":0,"CLASSIFICATION_TYPE":"U","NORAD_CAT_ID":46156,"ELEMENT_SET_NO":999,"REV_AT_EPOCH":23194,"BSTAR":0.0025741,"MEAN_MOTION_DOT":0.00038292,"MEAN_MOTION_DDOT":0},{"OBJECT_NAME":"STARLINK-1587","OBJECT_ID":"2020-057AS","EPOCH":"2024-10-27T12:39:13.003776","MEAN_MOTION":15.06395113,"ECCENTRICITY":0.0001704,"INCLINATION":53.0565,"RA_OF_ASC_NODE":352.9536,"ARG_OF_PERICENTER":101.4423,"MEAN_ANOMALY":258.6757,"EPHEMERIS_TYPE":0,"CLASSIFICATION_TYPE":"U","NORAD_CAT_ID":46157,"ELEMENT_SET_NO":999,"REV_AT_EPOCH":23154,"BSTAR":0.00020026,"MEAN_MOTION_DOT":2.702e-5,"MEAN_MOTION_DDOT":0},{"OBJECT_NAME":"STARLINK-1595","OBJECT_ID":"2020-057AU","EPOCH":"2024-10-27T13:32:15.106272","MEAN_MOTION":15.06437432,"ECCENTRICITY":0.0001419,"INCLINATION":53.055,"RA_OF_ASC_NODE":32.7904,"ARG_OF_PERICENTER":116.8485,"MEAN_ANOMALY":243.2649,"EPHEMERIS_TYPE":0,"CLASSIFICATION_TYPE":"U","NORAD_CAT_ID":46159,"ELEMENT_SET_NO":999,"REV_AT_EPOCH":23224,"BSTAR":0.0012202,"MEAN_MOTION_DOT":0.00017958,"MEAN_MOTION_DDOT":0},{"OBJECT_NAME":"STARLINK-1598","OBJECT_ID":"2020-057AV","EPOCH":"2024-10-27T14:54:32.620032","MEAN_MOTION":15.06392608,"ECCENTRICITY":0.0001748,"INCLINATION":53.0559,"RA_OF_ASC_NODE":12.5314,"ARG_OF_PERICENTER":92.0077,"MEAN_ANOMALY":268.1112,"EPHEMERIS_TYPE":0,"CLASSIFICATION_TYPE":"U","NORAD_CAT_ID":46160,"ELEMENT_SET_NO":999,"REV_AT_EPOCH":23252,"BSTAR":-0.00052266,"MEAN_MOTION_DOT":-8.056e-5,"MEAN_MOTION_DDOT":0},{"OBJECT_NAME":"STARLINK-1600","OBJECT_ID":"2020-057AW","EPOCH":"2024-10-27T14:22:43.006368","MEAN_MOTION":15.06382295,"ECCENTRICITY":0.0001468,"INCLINATION":53.0547,"RA_OF_ASC_NODE":12.633,"ARG_OF_PERICENTER":73.98,"MEAN_ANOMALY":286.1351,"EPHEMERIS_TYPE":0,"CLASSIFICATION_TYPE":"U","NORAD_CAT_ID":46161,"ELEMENT_SET_NO":999,"REV_AT_EPOCH":23194,"BSTAR":0.0017886,"MEAN_MOTION_DOT":0.00026447,"MEAN_MOTION_DDOT":0},{"OBJECT_NAME":"STARLINK-1603","OBJECT_ID":"2020-057AX","EPOCH":"2024-10-27T13:54:05.909184","MEAN_MOTION":15.28867908,"ECCENTRICITY":0.0002004,"INCLINATION":53.0514,"RA_OF_ASC_NODE":6.8694,"ARG_OF_PERICENTER":19.7232,"MEAN_ANOMALY":340.3844,"EPHEMERIS_TYPE":0,"CLASSIFICATION_TYPE":"U","NORAD_CAT_ID":46162,"ELEMENT_SET_NO":999,"REV_AT_EPOCH":23201,"BSTAR":0.0024219,"MEAN_MOTION_DOT":0.00069141,"MEAN_MOTION_DDOT":0},{"OBJECT_NAME":"STARLINK-1610","OBJECT_ID":"2020-057AY","EPOCH":"2024-10-27T20:47:31.083936","MEAN_MOTION":15.06389355,"ECCENTRICITY":0.0002261,"INCLINATION":53.0548,"RA_OF_ASC_NODE":351.4335,"ARG_OF_PERICENTER":76.814,"MEAN_ANOMALY":283.3101,"EPHEMERIS_TYPE":0,"CLASSIFICATION_TYPE":"U","NORAD_CAT_ID":46163,"ELEMENT_SET_NO":999,"REV_AT_EPOCH":23225,"BSTAR":0.0024565,"MEAN_MOTION_DOT":0.00036488,"MEAN_MOTION_DDOT":0},{"OBJECT_NAME":"STARLINK-1612","OBJECT_ID":"2020-057AZ","EPOCH":"2024-10-27T09:33:25.688736","MEAN_MOTION":15.06402234,"ECCENTRICITY":0.0001663,"INCLINATION":53.0553,"RA_OF_ASC_NODE":353.5378,"ARG_OF_PERICENTER":117.3733,"MEAN_ANOMALY":242.7426,"EPHEMERIS_TYPE":0,"CLASSIFICATION_TYPE":"U","NORAD_CAT_ID":46164,"ELEMENT_SET_NO":999,"REV_AT_EPOCH":23278,"BSTAR":0.00015753,"MEAN_MOTION_DOT":2.066e-5,"MEAN_MOTION_DDOT":0},{"OBJECT_NAME":"STARLINK-1626","OBJECT_ID":"2020-057BC","EPOCH":"2024-10-27T12:44:30.587712","MEAN_MOTION":15.06418627,"ECCENTRICITY":0.0002612,"INCLINATION":53.0555,"RA_OF_ASC_NODE":32.9377,"ARG_OF_PERICENTER":74.9639,"MEAN_ANOMALY":285.1639,"EPHEMERIS_TYPE":0,"CLASSIFICATION_TYPE":"U","NORAD_CAT_ID":46167,"ELEMENT_SET_NO":999,"REV_AT_EPOCH":23098,"BSTAR":0.00052089,"MEAN_MOTION_DOT":7.489e-5,"MEAN_MOTION_DDOT":0},{"OBJECT_NAME":"STARLINK-1627","OBJECT_ID":"2020-057BD","EPOCH":"2024-10-27T10:38:28.179744","MEAN_MOTION":15.06397972,"ECCENTRICITY":0.0001453,"INCLINATION":53.0552,"RA_OF_ASC_NODE":343.4186,"ARG_OF_PERICENTER":94.6403,"MEAN_ANOMALY":265.4752,"EPHEMERIS_TYPE":0,"CLASSIFICATION_TYPE":"U","NORAD_CAT_ID":46168,"ELEMENT_SET_NO":999,"REV_AT_EPOCH":23166,"BSTAR":0.00016913,"MEAN_MOTION_DOT":2.238e-5,"MEAN_MOTION_DDOT":0},{"OBJECT_NAME":"STARLINK-1628","OBJECT_ID":"2020-057BE","EPOCH":"2024-10-27T14:41:20.315616","MEAN_MOTION":15.06420264,"ECCENTRICITY":0.0001224,"INCLINATION":53.0551,"RA_OF_ASC_NODE":32.9542,"ARG_OF_PERICENTER":80.7259,"MEAN_ANOMALY":279.3869,"EPHEMERIS_TYPE":0,"CLASSIFICATION_TYPE":"U","NORAD_CAT_ID":46169,"ELEMENT_SET_NO":999,"REV_AT_EPOCH":23093,"BSTAR":0.00083177,"MEAN_MOTION_DOT":0.00012136,"MEAN_MOTION_DDOT":0},{"OBJECT_NAME":"STARLINK-1633","OBJECT_ID":"2020-057BG","EPOCH":"2024-10-27T12:10:00.317568","MEAN_MOTION":15.06409103,"ECCENTRICITY":0.0001513,"INCLINATION":53.0563,"RA_OF_ASC_NODE":13.0469,"ARG_OF_PERICENTER":100.6174,"MEAN_ANOMALY":259.4985,"EPHEMERIS_TYPE":0,"CLASSIFICATION_TYPE":"U","NORAD_CAT_ID":46171,"ELEMENT_SET_NO":999,"REV_AT_EPOCH":23192,"BSTAR":0.00065298,"MEAN_MOTION_DOT":9.46e-5,"MEAN_MOTION_DDOT":0},{"OBJECT_NAME":"STARLINK-1635","OBJECT_ID":"2020-057BH","EPOCH":"2024-10-27T12:31:14.993184","MEAN_MOTION":15.06403827,"ECCENTRICITY":0.0001674,"INCLINATION":53.0548,"RA_OF_ASC_NODE":12.9793,"ARG_OF_PERICENTER":99.1826,"MEAN_ANOMALY":260.9353,"EPHEMERIS_TYPE":0,"CLASSIFICATION_TYPE":"U","NORAD_CAT_ID":46172,"ELEMENT_SET_NO":999,"REV_AT_EPOCH":23191,"BSTAR":0.00044697,"MEAN_MOTION_DOT":6.383e-5,"MEAN_MOTION_DDOT":0},{"OBJECT_NAME":"STARLINK-1640","OBJECT_ID":"2020-057BJ","EPOCH":"2024-10-27T15:13:07.392576","MEAN_MOTION":15.0640679,"ECCENTRICITY":0.0001337,"INCLINATION":53.056,"RA_OF_ASC_NODE":32.4796,"ARG_OF_PERICENTER":101.4859,"MEAN_ANOMALY":258.628,"EPHEMERIS_TYPE":0,"CLASSIFICATION_TYPE":"U","NORAD_CAT_ID":46173,"ELEMENT_SET_NO":999,"REV_AT_EPOCH":23165,"BSTAR":0.0019221,"MEAN_MOTION_DOT":0.00028469,"MEAN_MOTION_DDOT":0},{"OBJECT_NAME":"STARLINK-1641","OBJECT_ID":"2020-057BK","EPOCH":"2024-10-27T15:23:43.865952","MEAN_MOTION":15.06416975,"ECCENTRICITY":0.0001709,"INCLINATION":53.0552,"RA_OF_ASC_NODE":32.4425,"ARG_OF_PERICENTER":110.8565,"MEAN_ANOMALY":249.2607,"EPHEMERIS_TYPE":0,"CLASSIFICATION_TYPE":"U","NORAD_CAT_ID":46174,"ELEMENT_SET_NO":999,"REV_AT_EPOCH":23165,"BSTAR":0.00071079,"MEAN_MOTION_DOT":0.00010326,"MEAN_MOTION_DDOT":0}]