STARLINK-1667           
1 46155U 20057AQ  24301.54934854 -.00002998  00000+0 -18253-3 0  9998
2 46155  53.0550 352.8522 0001781  98.7917 261.3274 15.06381779232207
STARLINK-1545           
1 46156U 20057AR  24301.60646889  .00038292  00000+0  25741-2 0  9997
2 46156  53.0554  12.6003 0001575  94.9176 265.1993 15.06422591231941
STARLINK-1587           
1 46157U 20057AS  24301.52723384  .00002702  00000+0  20026-3 0  9994
2 46157  53.0565 352.9536 0001704 101.4423 258.6757 15.06395113231548
STARLINK-1595           
1 46159U 20057AU  24301.56406373  .00017958  00000+0  12202-2 0  9991
2 46159  53.0550  32.7904 0001419 116.8485 243.2649 15.06437432232246
STARLINK-1598           
1 46160U 20057AV  24301.62121088 -.00008056  00000+0 -52266-3 0  9993
2 46160  53.0559  12.5314 0001748  92.0077 268.1112 15.06392608232522
STARLINK-1600           
1 46161U 20057AW  24301.59910887  .00026447  00000+0  17886-2 0  9993
2 46161  53.0547  12.6330 0001468  73.9800 286.1351 15.06382295231941
STARLINK-1603           
1 46162U 20057AX  24301.57923506  .00069141  00000+0  24219-2 0  9990
2 46162  53.0514   6.8694 0002004  19.7232 340.3844 15.28867908232010
STARLINK-1610           
1 46163U 20057AY  24301.86633199  .00036488  00000+0  24565-2 0  9991
2 46163  53.0548 351.4335 0002261  76.8140 283.3101 15.06389355232255
STARLINK-1612           
1 46164U 20057AZ  24301.39821399  .00002066  00000+0  15753-3 0  9996
2 46164  53.0553 353.5378 0001663 117.3733 242.7426 15.06402234232785
STARLINK-1626           
1 46167U 20057BC  24301.53090958  .00007489  00000+0  52089-3 0  9991
2 46167  53.0555  32.9377 0002612  74.9639 285.1639 15.06418627230985
STARLINK-1627           
1 46168U 20057BD  24301.44338171  .00002238  00000+0  16913-3 0  9997
2 46168  53.0552 343.4186 0001453  94.6403 265.4752 15.06397972231663
STARLINK-1628           
1 46169U 20057BE  24301.61204069  .00012136  00000+0  83177-3 0  9999
2 46169  53.0551  32.9542 0001224  80.7259 279.3869 15.06420264230933
STARLINK-1633           
1 46171U 20057BG  24301.50694812  .00009460  00000+0  65298-3 0  9999
2 46171  53.0563  13.0469 0001513 100.6174 259.4985 15.06409103231923
STARLINK-1635           
1 46172U 20057BH  24301.52170131  .00006383  00000+0  44697-3 0  9996
2 46172  53.0548  12.9793 0001674  99.1826 260.9353 15.06403827231911
STARLINK-1640           
1 46173U 20057BJ  24301.63411334  .00028469  00000+0  19221-2 0  9995
2 46173  53.0560  32.4796 0001337 101.4859 258.6280 15.06406790231651
STARLINK-1641           
1 46174U 20057BK  24301.64147993  .00010326  00000+0  71079-3 0  9997
2 46174  53.0552  32.4425 0001709 110.8565 249.2607 15.06416975231658
